NORAD_CAT_ID,OBJECT_NAME,OBJECT_TYPE,EPOCH,MEAN_MOTION,ECCENTRICITY,INCLINATION,RA_OF_ASC_NODE,ARG_OF_PERICENTER,MEAN_ANOMALY,BSTAR,MEAN_MOTION_DOT,MEAN_MOTION_DDOT,TLE_LINE0,TLE_LINE1,TLE_LINE2,SEMIMAJOR_AXIS,PERIOD,APOGEE,PERIGEE,DECAYED
52997.0,STARLINK-4301,PAYLOAD,2022-12-16 11:25:46,15.08877396,0.0002531,53.2164,347.8066,37.4845,322.6323,0.00072817,0.00011332,0.0,0 STARLINK-4301,1 52997U 22076M   22350.47623661  .00011332  00000-0  72817-3 0  9994,2 52997  53.2164 347.8066 0002531  37.4845 322.6323 15.08877396 25294,6917.766,95.435,541.382,537.88,0.0
52997.0,STARLINK-4301,PAYLOAD,2022-12-16 20:58:04,15.08894637,0.0002563,53.2165,346.0223,37.7141,322.403,0.00091658,0.00014351,0.0,0 STARLINK-4301,1 52997U 22076M   22350.87366270  .00014351  00000-0  91658-3 0  9996,2 52997  53.2165 346.0223 0002563  37.7141 322.4030 15.08894637 24882,6917.7130000000025,95.434,541.351,537.805,0.0
52997.0,STARLINK-4301,PAYLOAD,2022-12-17 03:19:35,15.08913146,0.0002579,53.2165,344.8329,38.6111,321.5065,0.00117,0.00018419,0.0,0 STARLINK-4301,1 52997U 22076M   22351.13860992  .00018419  00000-0  11700-2 0  9994,2 52997  53.2165 344.8329 0002579  38.6111 321.5065 15.08913146 25391,6917.656999999997,95.433,541.306,537.738,0.0
52997.0,STARLINK-4301,PAYLOAD,2022-12-17 11:16:29,15.08927481,0.0002586,53.2166,343.3459,39.4163,320.7017,0.0011488,0.00018087,0.0,0 STARLINK-4301,1 52997U 22076M   22351.46979126  .00018087  00000-0  11488-2 0  9994,2 52997  53.2166 343.3459 0002586  39.4163 320.7017 15.08927481 24972,6917.613,95.432,541.2669999999998,537.689,0.0
52997.0,STARLINK-4301,PAYLOAD,2022-12-17 19:13:23,15.0894093,0.0002591,53.2166,341.8590000000001,40.4835,319.6349,0.0011515999999999,0.00018138,0.0,0 STARLINK-4301,1 52997U 22076M   22351.80096985  .00018138  00000-0  11516-2 0  9994,2 52997  53.2166 341.8590 0002591  40.4835 319.6349 15.08940930 25021,6917.571999999999,95.431,541.229,537.645,0.0
52997.0,STARLINK-4301,PAYLOAD,2022-12-18 04:45:40,15.08957349,0.0002592,53.2166,340.0748,41.6034,318.5155,0.001154,0.00018185,0.0,0 STARLINK-4301,1 52997U 22076M   22352.19838017  .00018185  00000-0  11540-2 0  9996,2 52997  53.2166 340.0748 0002592  41.6034 318.5155 15.08957349 25555,6917.522,95.43,541.18,537.594,0.0
52997.0,STARLINK-4301,PAYLOAD,2022-12-18 11:07:10,15.08967132,0.0002595,53.2165,338.8852,42.2168,317.9023,0.0011277999999999,0.00017769,0.0,0 STARLINK-4301,1 52997U 22076M   22352.46331839  .00017769  00000-0  11278-2 0  9991,2 52997  53.2165 338.8852 0002595  42.2168 317.9023 15.08967132 25124,6917.4919999999975,95.43,541.1519999999998,537.562,0.0
52997.0,STARLINK-4301,PAYLOAD,2022-12-18 22:14:48,15.08986593,0.0002615,53.2164,336.8034,43.5725,316.5473,0.0012113,0.0001912,0.0,0 STARLINK-4301,1 52997U 22076M   22352.92695557  .00019120  00000-0  12113-2 0  9994,2 52997  53.2164 336.8034 0002615  43.5725 316.5473 15.08986593 25192,6917.432,95.428,541.106,537.488,0.0
52997.0,STARLINK-4301,PAYLOAD,2022-12-19 06:11:41,15.09002166,0.0002614,53.2163,335.3165,44.3815,315.7386,0.0013199,0.00020875,0.0,0 STARLINK-4301,1 52997U 22076M   22353.25812117  .00020875  00000-0  13199-2 0  9998,2 52997  53.2163 335.3165 0002614  44.3815 315.7386 15.09002166 25716,6917.385,95.427,541.058,537.442,0.0
52997.0,STARLINK-4301,PAYLOAD,2022-12-19 07:47:04,15.09005015,0.0002611,53.2163,335.019,44.6045,315.5157,0.0013257,0.0002097,0.0,0 STARLINK-4301,1 52997U 22076M   22353.32435395  .00020970  00000-0  13257-2 0  9996,2 52997  53.2163 335.0190 0002611  44.6045 315.5157 15.09005015 25255,6917.376,95.427,541.047,537.435,0.0
52997.0,STARLINK-4301,PAYLOAD,2022-12-19 20:30:03,15.0903213,0.0002612,53.2159,332.6397,46.5535,313.5674,0.0013984,0.00022156,0.0,0 STARLINK-4301,1 52997U 22076M   22353.85421005  .00022156  00000-0  13984-2 0  9992,2 52997  53.2159 332.6397 0002612  46.5535 313.5674 15.09032130 25337,6917.293000000002,95.425,540.965,537.351,0.0
52997.0,STARLINK-4301,PAYLOAD,2022-12-20 10:48:24,15.09062707,0.0002663,53.2156,329.9631,47.4338,312.6879,0.001356,0.00021491,0.0,0 STARLINK-4301,1 52997U 22076M   22354.45028669  .00021491  00000-0  13560-2 0  9999,2 52997  53.2156 329.9631 0002663  47.4338 312.6879 15.09062707 25421,6917.2,95.423,540.9069999999998,537.2230000000002,0.0
52997.0,STARLINK-4301,PAYLOAD,2022-12-21 05:52:51,15.09099629,0.0002714,53.2155,326.3937,49.8399,310.283,0.0014299,0.00022705,0.0,0 STARLINK-4301,1 52997U 22076M   22355.24503857  .00022705  00000-0  14299-2 0  9993,2 52997  53.2155 326.3937 0002714  49.8399 310.2830 15.09099629 25547,6917.087,95.421,540.8290000000002,537.075,0.0
52997.0,STARLINK-4301,PAYLOAD,2022-12-22 04:08:00,15.09139965,0.0002762,53.2156,322.2290000000001,52.2328,307.8914,0.0012753,0.00020235,0.0,0 STARLINK-4301,1 52997U 22076M   22356.17222495  .00020235  00000-0  12753-2 0  9991,2 52997  53.2156 322.2290 0002762  52.2328 307.8914 15.09139965 26159,6916.964,95.419,540.739,536.918,0.0
52997.0,STARLINK-4301,PAYLOAD,2022-12-22 07:18:44,15.09146148,0.0002779,53.2157,321.6342,52.1597,307.9647,0.0012948,0.00020553,0.0,0 STARLINK-4301,1 52997U 22076M   22356.30467811  .00020553  00000-0  12948-2 0  9998,2 52997  53.2157 321.6342 0002779  52.1597 307.9647 15.09146148 25701,6916.945,95.418,540.732,536.888,0.0
52997.0,STARLINK-4301,PAYLOAD,2022-12-22 21:37:01,15.09173791,0.0002792,53.216,318.9565,53.9414,306.1837,0.0014878,0.00023688,0.0,0 STARLINK-4301,1 52997U 22076M   22356.90071149  .00023688  00000-0  14878-2 0  9995,2 52997  53.2160 318.9565 0002792  53.9414 306.1837 15.09173791 25798,6916.86,95.416,540.656,536.794,0.0
52997.0,STARLINK-4301,PAYLOAD,2022-12-23 03:58:28,15.09184093,0.0002862,53.2161,317.767,53.4824,306.6431,0.0014617,0.00023273,0.0,0 STARLINK-4301,1 52997U 22076M   22357.16561203  .00023273  00000-0  14617-2 0  9990,2 52997  53.2161 317.7670 0002862  53.4824 306.6431 15.09184093 25838,6916.829000000002,95.416,540.673,536.714,0.0
52997.0,STARLINK-4301,PAYLOAD,2022-12-23 15:06:01,15.09204722,0.0002918,53.2164,315.6849,54.4601,305.6663,0.0013627,0.00021685,0.0,0 STARLINK-4301,1 52997U 22076M   22357.62918246  .00021685  00000-0  13627-2 0  9999,2 52997  53.2164 315.6849 0002918  54.4601 305.6663 15.09204722 25908,6916.766,95.414,540.649,536.612,0.0
52997.0,STARLINK-4301,PAYLOAD,2022-12-24 06:59:38,15.09236844,0.0003005,53.2166,312.7108,54.9356,305.1918,0.0014848,0.00023681,0.0,0 STARLINK-4301,1 52997U 22076M   22358.29141477  .00023681  00000-0  14848-2 0  9991,2 52997  53.2166 312.7108 0003005  54.9356 305.1918 15.09236844 26006,6916.668000000002,95.412,540.611,536.4540000000002,0.0
52997.0,STARLINK-4301,PAYLOAD,2022-12-25 03:39:18,15.09273716,0.0003017,53.2169,308.8438,57.2295,302.8988,0.0012457,0.00019831,0.0,0 STARLINK-4301,1 52997U 22076M   22359.15229651  .00019831  00000-0  12457-2 0  9994,2 52997  53.2169 308.8438 0003017  57.2295 302.8988 15.09273716 26608,6916.555,95.41,540.507,536.3330000000002,0.0
52997.0,STARLINK-4301,PAYLOAD,2022-12-25 21:08:14,15.09299042,0.0003007,53.2171,305.5713,60.2161,299.913,0.00093476,0.00014808,0.0,0 STARLINK-4301,1 52997U 22076M   22359.88071977  .00014808  00000-0  93476-3 0  9990,2 52997  53.2171 305.5713 0003007  60.2161 299.9130 15.09299042 26241,6916.478,95.409,540.422,536.263,0.0
52997.0,STARLINK-4301,PAYLOAD,2022-12-26 13:01:47,15.09326242,0.0003016,53.217,302.5968,61.6314,298.4982,0.0011787,0.00018773,0.0,0 STARLINK-4301,1 52997U 22076M   22360.54291130  .00018773  00000-0  11787-2 0  9999,2 52997  53.2170 302.5968 0003016  61.6314 298.4982 15.09326242 26347,6916.395,95.407,540.346,536.174,0.0
52997.0,STARLINK-4301,PAYLOAD,2022-12-26 20:58:33,15.09346496,0.0003052,53.2167,301.1092,61.346,298.7839,0.0014908,0.00023851,0.0,0 STARLINK-4301,1 52997U 22076M   22360.87400171  .00023851  00000-0  14908-2 0  9993,2 52997  53.2167 301.1092 0003052  61.3460 298.7839 15.09346496 26869,6916.333000000001,95.406,540.309,536.087,0.0
52997.0,STARLINK-4301,PAYLOAD,2022-12-27 06:30:40,15.09363072,0.0003074,53.2163,299.3248,61.6559,298.4743,0.0013517,0.00021602,0.0,0 STARLINK-4301,1 52997U 22076M   22361.27130578  .00021602  00000-0  13517-2 0  9996,2 52997  53.2163 299.3248 0003074  61.6559 298.4743 15.09363072 26457,6916.281999999997,95.404,540.273,536.021,0.0
52997.0,STARLINK-4301,PAYLOAD,2022-12-27 23:59:32,15.09402236,0.0003064999999999,53.2156,296.0521,64.0773,296.0535,0.0013412,0.00021454,0.0,0 STARLINK-4301,1 52997U 22076M   22361.99968133  .00021454  00000-0  13412-2 0  9990,2 52997  53.2156 296.0521 0003065  64.0773 296.0535 15.09402236 27036,6916.1619999999975,95.402,540.1469999999998,535.908,0.0
52997.0,STARLINK-4301,PAYLOAD,2022-12-28 12:42:20,15.09423525,0.0003076,53.2153,293.6717,64.6366,295.4945,0.001016,0.00016179,0.0,0 STARLINK-4301,1 52997U 22076M   22362.52939881  .00016179  00000-0  10160-2 0  9993,2 52997  53.2153 293.6717 0003076  64.6366 295.4945 15.09423525 26647,6916.097,95.401,540.09,535.835,0.0
52997.0,STARLINK-4301,PAYLOAD,2022-12-29 04:35:48,15.09448205,0.0003097,53.2146,290.6964,65.2639,294.8676,0.0010693,0.00017057,0.0,0 STARLINK-4301,1 52997U 22076M   22363.19153591  .00017057  00000-0  10693-2 0  9990,2 52997  53.2146 290.6964 0003097  65.2639 294.8676 15.09448205 27213,6916.022,95.399,540.029,535.745,0.0
52997.0,STARLINK-4301,PAYLOAD,2022-12-29 12:32:32,15.09461157,0.000309,53.2146,289.2083,66.0634,294.0681,0.0011813,0.00018886,0.0,0 STARLINK-4301,1 52997U 22076M   22363.52260067  .00018886  00000-0  11813-2 0  9990,2 52997  53.2146 289.2083 0003090  66.0634 294.0681 15.09461157 26797,6915.982,95.398,539.984,535.71,0.0
52997.0,STARLINK-4301,PAYLOAD,2022-12-30 04:25:59,15.0949547,0.000316,53.2145,286.2333,67.34100000000001,292.7916,0.00183,0.00029489,0.0,0 STARLINK-4301,1 52997U 22076M   22364.18472100  .00029489  00000-0  18300-2 0  9995,2 52997  53.2145 286.2333 0003160  67.3410 292.7916 15.09495470 26897,6915.878000000002,95.396,539.928,535.557,0.0
